FENGYUN 1C DEB          
1 35230U 99025DQN 17345.31959754  .00001045  00000-0  43889-3 0  9996
2 35230  98.3418 179.1999 0065679 226.0659 133.5092 14.26745275303367
